STARLINK-1154
1 45198U 20012W   26090.76797050  .00123746  00000+0  21701-2 0  9995
2 45198  53.0464 264.3968 0004780 180.0075 180.0934 15.49660134338715
